[{"OBJECT_NAME":"STARLINK-34709","OBJECT_ID":"2025-152C","EPOCH":"2026-03-09T14:41:42.337248","MEAN_MOTION":15.05647207,"ECCENTRICITY":0.0001833,"INCLINATION":97.6028,"RA_OF_ASC_NODE":285.3976,"ARG_OF_PERICENTER":89.5446,"MEAN_ANOMALY":270.599,"EPHEMERIS_TYPE":0,"CLASSIFICATION_TYPE":"U","NORAD_CAT_ID":64844,"ELEMENT_SET_NO":999,"REV_AT_EPOCH":3540,"BSTAR":0.00038915,"MEAN_MOTION_DOT":5.558e-5,"MEAN_MOTION_DDOT":0},{"OBJECT_NAME":"COSMOS 2251 DEB","OBJECT_ID":"1993-036BPT","EPOCH":"2026-03-03T18:02:37.907232","MEAN_MOTION":15.02748901,"ECCENTRICITY":0.00784494,"INCLINATION":73.9982,"RA_OF_ASC_NODE":105.7002,"ARG_OF_PERICENTER":203.8682,"MEAN_ANOMALY":155.8863,"EPHEMERIS_TYPE":0,"CLASSIFICATION_TYPE":"U","NORAD_CAT_ID":37968,"ELEMENT_SET_NO":999,"REV_AT_EPOCH":61435,"BSTAR":0.00086959674,"MEAN_MOTION_DOT":0.0001241,"MEAN_MOTION_DDOT":0}]
